[{"OBJECT_NAME":"COSMOS 2523","OBJECT_ID":"2017-037E","EPOCH":"2026-03-09T23:01:03.762912","MEAN_MOTION":14.95066265,"ECCENTRICITY":0.0066686,"INCLINATION":97.5062,"RA_OF_ASC_NODE":86.2978,"ARG_OF_PERICENTER":201.8356,"MEAN_ANOMALY":158.0021,"EPHEMERIS_TYPE":0,"CLASSIFICATION_TYPE":"U","NORAD_CAT_ID":42986,"ELEMENT_SET_NO":999,"REV_AT_EPOCH":45413,"BSTAR":0.00015362789,"MEAN_MOTION_DOT":1.699e-5,"MEAN_MOTION_DDOT":0},{"OBJECT_NAME":"STARLINK-5617","OBJECT_ID":"2023-028N","EPOCH":"2026-03-09T21:46:53.334336","MEAN_MOTION":14.98332824,"ECCENTRICITY":0.00025577,"INCLINATION":69.9992,"RA_OF_ASC_NODE":243.8711,"ARG_OF_PERICENTER":268.1426,"MEAN_ANOMALY":91.9441,"EPHEMERIS_TYPE":0,"CLASSIFICATION_TYPE":"U","NORAD_CAT_ID":55753,"ELEMENT_SET_NO":999,"REV_AT_EPOCH":16607,"BSTAR":2.9104575e-5,"MEAN_MOTION_DOT":2.54e-6,"MEAN_MOTION_DDOT":0}]
